{
  "type": "FeatureCollection",
  "features": [
    {
      "type": "Feature",
      "properties": {
        "norad_id": 46277,
        "name": "NEMO-HD",
        "group": "resource",
        "lat": 44.184555709560264,
        "lon": -113.76694068120172,
        "alt_km": 440.5904080276305,
        "timestamp": "2025-12-26T05:31:12.157673+00:00",
        "meta_object_name": "NEMO-HD",
        "meta_object_id": "2020-061F",
        "meta_epoch": "2025-12-25T22:41:58.023744",
        "meta_mean_motion": 15.4059647,
        "meta_eccentricity": 0.00010264,
        "meta_inclination": 97.2188,
        "meta_ra_of_asc_node": 58.8759,
        "meta_arg_of_pericenter": 53.225,
        "meta_mean_anomaly": 306.9091,
        "meta_ephemeris_type": 0,
        "meta_classification_type": "U",
        "meta_norad_cat_id": 46277,
        "meta_element_set_no": 999,
        "meta_rev_at_epoch": 29527,
        "meta_bstar": 0.00026119081,
        "meta_mean_motion_dot": 0.00010547,
        "meta_mean_motion_ddot": 0,
        "tle_line1": "1 46277U 20061F   25359.94581046  .00010547  00000+0  26119-3 0  9994",
        "tle_line2": "2 46277  97.2188  58.8759 0001026  53.2250 306.9091 15.40596470295275"
      },
      "geometry": {
        "type": "Point",
        "coordinates": [
          -113.76694068120172,
          44.184555709560264
        ]
      }
    },
    {
      "type": "Feature",
      "properties": {
        "norad_id": 46984,
        "name": "SENTINEL-6A",
        "group": "resource",
        "lat": 19.438673329113808,
        "lon": 143.31683250520868,
        "alt_km": 1339.094184200324,
        "timestamp": "2025-12-26T05:31:12.157683+00:00",
        "meta_object_name": "SENTINEL-6A",
        "meta_object_id": "2020-086A",
        "meta_epoch": "2025-12-25T18:09:57.449088",
        "meta_mean_motion": 12.80930775,
        "meta_eccentricity": 0.00077549,
        "meta_inclination": 66.0401,
        "meta_ra_of_asc_node": 135.2711,
        "meta_arg_of_pericenter": 269.4393,
        "meta_mean_anomaly": 90.5733,
        "meta_ephemeris_type": 0,
        "meta_classification_type": "U",
        "meta_norad_cat_id": 46984,
        "meta_element_set_no": 999,
        "meta_rev_at_epoch": 23811,
        "meta_bstar": 4.727934e-05,
        "meta_mean_motion_dot": -5e-07,
        "meta_mean_motion_ddot": 0,
        "tle_line1": "1 46984U 20086A   25359.75691492 -.00000050  00000+0  47279-4 0  9992",
        "tle_line2": "2 46984  66.0401 135.2711 0007754 269.4393  90.5733 12.80930775238113"
      },
      "geometry": {
        "type": "Point",
        "coordinates": [
          143.31683250520868,
          19.438673329113808
        ]
      }
    },
    {
      "type": "Feature",
      "properties": {
        "norad_id": 48079,
        "name": "GAOFEN-12 02",
        "group": "resource",
        "lat": -38.46847015809359,
        "lon": 167.76767143565155,
        "alt_km": 635.6392146115932,
        "timestamp": "2025-12-26T05:31:12.157693+00:00",
        "meta_object_name": "GAOFEN-12 02",
        "meta_object_id": "2021-026A",
        "meta_epoch": "2025-12-25T23:40:10.271136",
        "meta_mean_motion": 14.80690282,
        "meta_eccentricity": 0.00035394,
        "meta_inclination": 97.9858,
        "meta_ra_of_asc_node": 353.9291,
        "meta_arg_of_pericenter": 74.5205,
        "meta_mean_anomaly": 285.6398,
        "meta_ephemeris_type": 0,
        "meta_classification_type": "U",
        "meta_norad_cat_id": 48079,
        "meta_element_set_no": 999,
        "meta_rev_at_epoch": 25613,
        "meta_bstar": 7.3952769e-05,
        "meta_mean_motion_dot": 5.16e-06,
        "meta_mean_motion_ddot": 0,
        "tle_line1": "1 48079U 21026A   25359.98622999  .00000516  00000+0  73953-4 0  9999",
        "tle_line2": "2 48079  97.9858 353.9291 0003539  74.5205 285.6398 14.80690282256139"
      },
      "geometry": {
        "type": "Point",
        "coordinates": [
          167.76767143565155,
          -38.46847015809359
        ]
      }
    },
    {
      "type": "Feature",
      "properties": {
        "norad_id": 48268,
        "name": "PLEIADES NEO 3",
        "group": "resource",
        "lat": -26.19921738280418,
        "lon": 76.3919538434018,
        "alt_km": 630.176324342211,
        "timestamp": "2025-12-26T05:31:12.157703+00:00",
        "meta_object_name": "PLEIADES NEO 3",
        "meta_object_id": "2021-034A",
        "meta_epoch": "2025-12-25T23:09:22.082688",
        "meta_mean_motion": 14.81671828,
        "meta_eccentricity": 0.00013492,
        "meta_inclination": 97.8942,
        "meta_ra_of_asc_node": 72.2159,
        "meta_arg_of_pericenter": 90.1578,
        "meta_mean_anomaly": 269.979,
        "meta_ephemeris_type": 0,
        "meta_classification_type": "U",
        "meta_norad_cat_id": 48268,
        "meta_element_set_no": 999,
        "meta_rev_at_epoch": 25200,
        "meta_bstar": 2.0958615e-05,
        "meta_mean_motion_dot": 1.13e-06,
        "meta_mean_motion_ddot": 0,
        "tle_line1": "1 48268U 21034A   25359.96483892  .00000113  00000+0  20959-4 0  9994",
        "tle_line2": "2 48268  97.8942  72.2159 0001349  90.1578 269.9790 14.81671828252009"
      },
      "geometry": {
        "type": "Point",
        "coordinates": [
          76.3919538434018,
          -26.19921738280418
        ]
      }
    },
    {
      "type": "Feature",
      "properties": {
        "norad_id": 49070,
        "name": "PLEIADES NEO 4",
        "group": "resource",
        "lat": 25.89285038632832,
        "lon": -103.66468937532665,
        "alt_km": 622.828289039594,
        "timestamp": "2025-12-26T05:31:12.157716+00:00",
        "meta_object_name": "PLEIADES NEO 4",
        "meta_object_id": "2021-073E",
        "meta_epoch": "2025-12-25T22:20:43.621152",
        "meta_mean_motion": 14.81671141,
        "meta_eccentricity": 0.00013665,
        "meta_inclination": 97.8943,
        "meta_ra_of_asc_node": 72.1787,
        "meta_arg_of_pericenter": 88.4676,
        "meta_mean_anomaly": 271.6693,
        "meta_ephemeris_type": 0,
        "meta_classification_type": "U",
        "meta_norad_cat_id": 49070,
        "meta_element_set_no": 999,
        "meta_rev_at_epoch": 23571,
        "meta_bstar": -9.5364176e-05,
        "meta_mean_motion_dot": -8.02e-06,
        "meta_mean_motion_ddot": 0,
        "tle_line1": "1 49070U 21073E   25359.93106043 -.00000802  00000+0 -95364-4 0  9995",
        "tle_line2": "2 49070  97.8943  72.1787 0001366  88.4676 271.6693 14.81671141235715"
      },
      "geometry": {
        "type": "Point",
        "coordinates": [
          -103.66468937532665,
          25.89285038632832
        ]
      }
    },
    {
      "type": "Feature",
      "properties": {
        "norad_id": 49260,
        "name": "LANDSAT 9",
        "group": "resource",
        "lat": 58.253197841894995,
        "lon": 54.65461484966784,
        "alt_km": 696.2278038501499,
        "timestamp": "2025-12-26T05:31:12.157726+00:00",
        "meta_object_name": "LANDSAT 9",
        "meta_object_id": "2021-088A",
        "meta_epoch": "2025-12-25T19:21:38.919744",
        "meta_mean_motion": 14.57111045,
        "meta_eccentricity": 0.0001112,
        "meta_inclination": 98.2077,
        "meta_ra_of_asc_node": 67.7273,
        "meta_arg_of_pericenter": 93.391,
        "meta_mean_anomaly": 266.7416,
        "meta_ephemeris_type": 0,
        "meta_classification_type": "U",
        "meta_norad_cat_id": 49260,
        "meta_element_set_no": 999,
        "meta_rev_at_epoch": 22575,
        "meta_bstar": 0.00011045343,
        "meta_mean_motion_dot": 4.52e-06,
        "meta_mean_motion_ddot": 0,
        "tle_line1": "1 49260U 21088A   25359.80670046  .00000452  00000+0  11045-3 0  9999",
        "tle_line2": "2 49260  98.2077  67.7273 0001112  93.3910 266.7416 14.57111045225750"
      },
      "geometry": {
        "type": "Point",
        "coordinates": [
          54.65461484966784,
          58.253197841894995
        ]
      }
    },
    {
      "type": "Feature",
      "properties": {
        "norad_id": 51444,
        "name": "CSG-2",
        "group": "resource",
        "lat": -29.47571074944246,
        "lon": -3.1404993186044066,
        "alt_km": 629.0988114447055,
        "timestamp": "2025-12-26T05:31:12.157736+00:00",
        "meta_object_name": "CSG-2",
        "meta_object_id": "2022-008A",
        "meta_epoch": "2025-12-25T23:42:58.629312",
        "meta_mean_motion": 14.82156312,
        "meta_eccentricity": 0.00014442,
        "meta_inclination": 97.8805,
        "meta_ra_of_asc_node": 181.1115,
        "meta_arg_of_pericenter": 82.1491,
        "meta_mean_anomaly": 277.9886,
        "meta_ephemeris_type": 0,
        "meta_classification_type": "U",
        "meta_norad_cat_id": 51444,
        "meta_element_set_no": 999,
        "meta_rev_at_epoch": 21093,
        "meta_bstar": 6.6530239e-05,
        "meta_mean_motion_dot": 4.78e-06,
        "meta_mean_motion_ddot": 0,
        "tle_line1": "1 51444U 22008A   25359.98817858  .00000478  00000+0  66530-4 0  9990",
        "tle_line2": "2 51444  97.8805 181.1115 0001444  82.1491 277.9886 14.82156312210938"
      },
      "geometry": {
        "type": "Point",
        "coordinates": [
          -3.1404993186044066,
          -29.47571074944246
        ]
      }
    }
  ]
}